{"type":"FeatureCollection","features":[{"type":"Feature","properties":{"name":"Russia","iso2":"RU","defaultScore":61},"geometry":{"type":"Polygon","coordinates":[[[27.9,69.1],[32.5,69.9],[40.0,70.0],[55.0,72.0],[82.0,73.5],[104.0,73.0],[130.0,72.0],[141.0,70.0],[141.0,68.0],[138.0,60.0],[135.0,48.5],[130.5,42.5],[129.0,43.0],[128.0,48.0],[120.0,52.0],[110.0,53.5],[95.0,56.0],[85.0,56.0],[75.0,57.0],[68.0,55.5],[65.0,52.0],[60.0,53.0],[56.0,55.0],[52.5,56.0],[50.0,58.0],[46.0,58.0],[42.0,62.0],[36.5,65.5],[30.0,67.0],[27.9,69.1]]]}},{"type":"Feature","properties":{"name":"Ukraine","iso2":"UA","defaultScore":89},"geometry":{"type":"Polygon","coordinates":[[[22.2,48.4],[26.0,50.6],[30.0,52.0],[34.0,51.8],[37.5,50.4],[39.2,47.8],[37.0,46.6],[35.0,45.3],[33.5,46.0],[31.0,46.8],[29.0,45.4],[28.0,45.6],[26.0,48.0],[24.0,47.8],[22.2,48.4]]]}},{"type":"Feature","properties":{"name":"Iran","iso2":"IR","defaultScore":72},"geometry":{"type":"Polygon","coordinates":[[[44.0,39.4],[47.0,40.0],[50.0,38.0],[53.5,37.5],[57.0,38.2],[60.0,36.8],[63.0,35.6],[61.0,31.0],[60.5,25.4],[57.0,25.8],[55.5,26.4],[54.0,26.0],[52.5,27.0],[50.0,26.5],[48.0,28.0],[46.0,29.4],[44.0,33.0],[44.0,37.0],[44.0,39.4]]]}},{"type":"Feature","properties":{"name":"Sudan","iso2":"SD","defaultScore":89},"geometry":{"type":"Polygon","coordinates":[[[24.0,22.0],[28.0,22.0],[32.0,22.0],[37.0,22.0],[37.0,19.6],[38.0,18.0],[37.5,16.0],[36.5,14.0],[35.0,12.0],[34.0,10.8],[33.0,9.6],[32.0,11.0],[30.0,12.0],[27.0,12.0],[25.0,14.0],[24.0,16.0],[24.0,22.0]]]}},{"type":"Feature","properties":{"name":"South Sudan","iso2":"SS","defaultScore":75},"geometry":{"type":"Polygon","coordinates":[[[24.0,10.0],[25.0,12.0],[28.0,12.0],[30.0,12.0],[32.0,11.0],[33.5,9.6],[34.0,8.0],[35.0,5.0],[34.0,4.0],[32.0,3.8],[30.0,3.5],[28.0,4.0],[27.0,5.5],[25.0,7.0],[24.0,10.0]]]}},{"type":"Feature","properties":{"name":"Syria","iso2":"SY","defaultScore":85},"geometry":{"type":"Polygon","coordinates":[[[36.0,37.2],[38.0,37.0],[41.0,36.5],[42.0,37.0],[41.5,34.5],[40.5,33.0],[38.0,33.2],[36.8,32.4],[36.0,34.0],[36.0,37.2]]]}},{"type":"Feature","properties":{"name":"Yemen","iso2":"YE","defaultScore":78},"geometry":{"type":"Polygon","coordinates":[[[42.6,18.0],[44.0,18.4],[47.0,18.0],[49.0,18.6],[51.0,18.0],[52.5,16.6],[52.0,15.0],[50.0,14.0],[47.0,14.0],[45.0,13.0],[43.5,12.6],[42.8,15.0],[42.6,18.0]]]}},{"type":"Feature","properties":{"name":"Afghanistan","iso2":"AF","defaultScore":82},"geometry":{"type":"Polygon","coordinates":[[[61.0,36.0],[63.0,36.8],[66.0,38.0],[70.0,37.6],[71.5,36.8],[74.0,37.2],[74.5,36.0],[72.0,34.0],[70.0,33.5],[67.5,31.0],[64.0,29.5],[62.0,29.5],[61.5,31.0],[60.5,34.0],[61.0,36.0]]]}},{"type":"Feature","properties":{"name":"Myanmar","iso2":"MM","defaultScore":76},"geometry":{"type":"Polygon","coordinates":[[[92.0,28.0],[94.0,28.0],[97.0,27.0],[99.5,25.5],[100.0,22.0],[99.5,20.0],[98.5,18.0],[97.5,16.0],[98.0,14.0],[100.5,15.0],[99.0,12.0],[97.0,10.0],[95.0,13.0],[94.0,16.0],[93.0,22.0],[92.0,25.0],[92.0,28.0]]]}},{"type":"Feature","properties":{"name":"Ethiopia","iso2":"ET","defaultScore":65},"geometry":{"type":"Polygon","coordinates":[[[38.0,14.8],[40.0,14.5],[42.0,12.0],[44.0,11.5],[46.0,10.0],[44.0,8.0],[42.0,6.0],[40.0,4.2],[38.5,5.0],[36.0,4.5],[34.5,6.5],[33.0,8.5],[33.0,11.5],[34.0,14.5],[36.0,15.0],[38.0,14.8]]]}},{"type":"Feature","properties":{"name":"Somalia","iso2":"SO","defaultScore":78},"geometry":{"type":"Polygon","coordinates":[[[41.5,11.5],[44.0,11.5],[46.0,10.5],[49.0,9.0],[51.0,11.5],[51.5,12.5],[50.0,11.5],[48.0,8.0],[46.0,5.0],[44.0,1.5],[41.5,1.0],[40.0,2.5],[40.0,5.0],[41.0,8.5],[41.5,11.5]]]}},{"type":"Feature","properties":{"name":"DRC","iso2":"CD","defaultScore":74},"geometry":{"type":"Polygon","coordinates":[[[17.5,5.0],[20.0,4.5],[23.0,4.0],[26.0,5.0],[27.5,3.0],[29.5,3.0],[30.5,1.5],[30.0,0.0],[29.5,-2.0],[30.0,-4.0],[29.0,-6.0],[28.0,-8.0],[27.0,-8.5],[25.0,-7.0],[22.5,-7.5],[20.0,-7.0],[18.0,-5.0],[16.5,-3.5],[16.0,-1.0],[17.0,1.0],[17.5,5.0]]]}},{"type":"Feature","properties":{"name":"Mali","iso2":"ML","defaultScore":65},"geometry":{"type":"Polygon","coordinates":[[[-4.0,24.0],[0.0,24.0],[4.0,24.0],[4.0,20.0],[2.0,15.0],[0.0,14.5],[-2.0,15.0],[-3.5,14.0],[-5.5,15.0],[-7.0,16.0],[-8.0,18.5],[-4.5,20.5],[-4.0,24.0]]]}},{"type":"Feature","properties":{"name":"Libya","iso2":"LY","defaultScore":55},"geometry":{"type":"Polygon","coordinates":[[[9.5,33.2],[12.5,33.5],[15.0,33.0],[20.0,32.0],[25.0,31.5],[25.0,28.0],[25.0,22.0],[20.0,22.0],[15.0,22.0],[10.0,22.0],[8.5,22.0],[8.0,25.5],[9.5,30.0],[9.5,33.2]]]}},{"type":"Feature","properties":{"name":"Algeria","iso2":"DZ","defaultScore":18},"geometry":{"type":"Polygon","coordinates":[[[-1.5,37.0],[3.0,37.5],[8.5,37.0],[8.5,36.5],[8.0,33.5],[9.5,33.2],[9.5,30.0],[8.0,25.5],[8.5,22.0],[3.0,20.0],[-2.0,20.0],[-5.0,20.0],[-8.5,20.0],[-8.5,27.0],[-5.0,30.5],[-1.5,32.5],[-1.5,37.0]]]}},{"type":"Feature","properties":{"name":"Iraq","iso2":"IQ","defaultScore":62},"geometry":{"type":"Polygon","coordinates":[[[38.7,37.0],[41.5,37.5],[44.0,37.0],[46.0,37.5],[48.5,33.5],[47.5,30.0],[46.5,29.0],[45.0,29.5],[43.0,29.5],[40.0,31.0],[38.7,33.0],[38.7,37.0]]]}},{"type":"Feature","properties":{"name":"Lebanon","iso2":"LB","defaultScore":52},"geometry":{"type":"Polygon","coordinates":[[[35.1,33.1],[36.2,33.6],[36.6,34.6],[36.6,33.2],[36.4,32.5],[35.7,33.1],[35.1,33.1]]]}},{"type":"Feature","properties":{"name":"Israel","iso2":"IL","defaultScore":70},"geometry":{"type":"Polygon","coordinates":[[[34.3,31.2],[34.9,32.2],[35.5,33.0],[35.8,33.3],[35.6,32.7],[35.5,32.0],[35.2,30.5],[34.9,29.5],[34.3,30.0],[34.3,31.2]]]}},{"type":"Feature","properties":{"name":"Pakistan","iso2":"PK","defaultScore":48},"geometry":{"type":"Polygon","coordinates":[[[61.0,36.0],[66.0,38.0],[70.0,37.6],[71.5,36.8],[74.0,37.2],[74.5,34.5],[72.5,34.0],[70.0,33.5],[70.0,28.0],[67.5,27.0],[64.0,23.5],[62.0,22.0],[60.5,25.4],[61.0,30.0],[61.0,36.0]]]}},{"type":"Feature","properties":{"name":"North Korea","iso2":"KP","defaultScore":68},"geometry":{"type":"Polygon","coordinates":[[[124.0,40.0],[126.5,40.5],[128.5,42.0],[129.5,41.5],[130.5,39.5],[129.0,38.0],[127.0,37.5],[126.0,38.0],[124.5,39.0],[124.0,40.0]]]}},{"type":"Feature","properties":{"name":"Venezuela","iso2":"VE","defaultScore":54},"geometry":{"type":"Polygon","coordinates":[[[-72.0,12.5],[-70.0,12.0],[-67.0,12.5],[-63.0,11.0],[-61.0,9.0],[-60.0,6.0],[-62.0,4.0],[-66.0,1.5],[-68.0,2.0],[-72.0,2.0],[-74.0,6.5],[-73.0,10.0],[-72.0,12.5]]]}},{"type":"Feature","properties":{"name":"China","iso2":"CN","defaultScore":38},"geometry":{"type":"Polygon","coordinates":[[[73.5,39.5],[77.0,42.0],[80.0,44.0],[87.0,48.5],[90.0,47.5],[95.0,42.5],[100.0,42.0],[105.0,42.0],[110.0,38.0],[116.0,40.0],[121.0,40.0],[122.0,37.0],[120.0,32.0],[115.0,27.0],[110.0,22.0],[108.0,22.0],[102.0,22.0],[100.0,23.0],[97.0,28.0],[91.0,27.5],[88.0,27.5],[82.0,31.0],[79.0,34.0],[76.0,35.0],[73.5,39.5]]]}},{"type":"Feature","properties":{"name":"India","iso2":"IN","defaultScore":22},"geometry":{"type":"Polygon","coordinates":[[[68.0,37.0],[74.0,37.5],[79.0,35.5],[81.0,30.5],[88.0,27.5],[91.0,26.0],[93.0,26.5],[95.5,27.0],[97.0,28.5],[97.5,27.0],[95.0,22.0],[92.5,22.0],[90.5,22.0],[89.0,21.5],[87.0,22.0],[86.5,20.0],[84.0,18.5],[80.0,13.0],[77.0,8.0],[78.0,9.0],[80.5,13.0],[79.0,16.0],[74.0,20.0],[73.0,22.0],[68.5,24.0],[68.0,28.0],[68.0,37.0]]]}},{"type":"Feature","properties":{"name":"Brazil","iso2":"BR","defaultScore":26},"geometry":{"type":"Polygon","coordinates":[[[-73.0,-4.0],[-70.0,2.0],[-67.0,2.0],[-60.0,5.0],[-51.0,4.0],[-50.0,1.0],[-44.0,2.0],[-39.0,-4.0],[-35.0,-8.5],[-37.0,-13.0],[-40.0,-20.0],[-44.0,-23.0],[-48.0,-27.0],[-52.0,-33.0],[-53.5,-30.0],[-55.0,-32.5],[-58.0,-28.0],[-60.0,-20.0],[-58.0,-12.0],[-65.0,-10.0],[-70.0,-9.0],[-73.0,-8.0],[-73.0,-4.0]]]}},{"type":"Feature","properties":{"name":"Saudi Arabia","iso2":"SA","defaultScore":28},"geometry":{"type":"Polygon","coordinates":[[[36.5,29.0],[38.0,28.5],[39.0,28.5],[40.5,28.0],[42.0,28.5],[44.0,30.0],[47.0,30.0],[48.5,29.5],[50.0,29.0],[51.0,27.0],[55.0,24.0],[55.5,22.0],[53.5,19.0],[52.0,18.5],[49.0,18.5],[46.0,17.0],[43.0,17.5],[42.0,16.5],[43.0,14.0],[41.5,16.0],[40.0,20.0],[37.0,21.5],[36.5,22.0],[36.5,27.0],[36.5,29.0]]]}},{"type":"Feature","properties":{"name":"Turkey","iso2":"TR","defaultScore":35},"geometry":{"type":"Polygon","coordinates":[[[26.0,41.5],[29.0,41.5],[33.0,42.0],[36.0,42.0],[40.0,41.5],[43.5,40.5],[44.5,39.5],[44.0,38.0],[42.5,37.0],[39.5,36.5],[36.0,36.0],[35.5,37.0],[36.5,37.5],[36.0,38.0],[33.5,37.0],[31.0,37.0],[28.5,37.5],[28.0,38.5],[26.0,40.0],[26.0,41.5]]]}},{"type":"Feature","properties":{"name":"Egypt","iso2":"EG","defaultScore":29},"geometry":{"type":"Polygon","coordinates":[[[25.0,31.5],[29.0,31.2],[32.0,31.0],[34.5,30.0],[34.9,29.5],[34.0,28.0],[32.5,27.0],[32.0,26.0],[33.0,24.0],[32.0,22.0],[25.0,22.0],[25.0,25.0],[25.0,31.5]]]}},{"type":"Feature","properties":{"name":"Nigeria","iso2":"NG","defaultScore":45},"geometry":{"type":"Polygon","coordinates":[[[2.7,6.4],[3.5,7.0],[5.0,8.0],[6.0,10.5],[7.0,13.0],[9.0,13.5],[11.0,13.5],[13.5,13.0],[14.5,12.5],[13.0,10.0],[12.0,8.0],[10.0,7.0],[8.0,4.5],[6.0,4.0],[4.0,5.0],[2.7,6.4]]]}},{"type":"Feature","properties":{"name":"South Africa","iso2":"ZA","defaultScore":32},"geometry":{"type":"Polygon","coordinates":[[[16.5,-29.0],[19.0,-29.0],[22.0,-29.0],[25.0,-29.5],[28.0,-30.0],[30.0,-31.0],[31.0,-30.0],[31.5,-27.0],[32.0,-25.0],[31.0,-23.0],[29.0,-22.0],[26.5,-20.0],[22.5,-18.5],[20.0,-22.0],[18.5,-25.5],[17.5,-29.0],[16.5,-29.0]]]}},{"type":"Feature","properties":{"name":"Germany","iso2":"DE","defaultScore":14},"geometry":{"type":"Polygon","coordinates":[[[6.0,51.0],[7.0,53.5],[9.0,55.0],[12.0,54.5],[14.0,54.0],[15.0,51.0],[14.5,50.0],[13.0,48.5],[11.0,47.5],[10.0,48.0],[8.0,48.0],[6.5,49.0],[6.0,51.0]]]}},{"type":"Feature","properties":{"name":"France","iso2":"FR","defaultScore":12},"geometry":{"type":"Polygon","coordinates":[[[-1.5,48.5],[2.0,51.0],[5.0,49.5],[8.0,47.5],[7.5,44.0],[6.5,43.0],[3.0,43.5],[0.5,43.0],[-1.5,44.0],[-2.0,47.0],[-1.5,48.5]]]}},{"type":"Feature","properties":{"name":"United Kingdom","iso2":"GB","defaultScore":13},"geometry":{"type":"Polygon","coordinates":[[[-3.0,58.5],[0.0,61.0],[2.0,58.0],[1.0,53.0],[-1.5,51.0],[-3.0,51.5],[-5.0,52.0],[-5.5,54.0],[-3.0,55.5],[-3.0,58.5]]]}},{"type":"Feature","properties":{"name":"United States","iso2":"US","defaultScore":20},"geometry":{"type":"Polygon","coordinates":[[[-123.0,49.0],[-95.0,49.0],[-83.0,45.0],[-76.0,44.0],[-67.0,47.0],[-67.0,44.0],[-70.0,42.0],[-74.0,40.5],[-75.5,36.0],[-80.0,32.0],[-85.0,30.0],[-90.0,28.5],[-97.0,28.0],[-103.0,28.5],[-109.0,31.0],[-117.0,32.5],[-117.5,38.0],[-123.0,39.0],[-124.5,47.0],[-123.0,49.0]]]}},{"type":"Feature","properties":{"name":"Mexico","iso2":"MX","defaultScore":38},"geometry":{"type":"Polygon","coordinates":[[[-117.0,32.5],[-109.0,31.0],[-103.0,28.5],[-97.0,28.0],[-94.0,26.0],[-91.0,22.0],[-87.5,21.5],[-87.0,19.0],[-91.5,16.0],[-92.0,17.0],[-94.0,18.5],[-97.0,20.0],[-104.0,19.0],[-104.5,22.0],[-109.5,26.0],[-110.0,29.0],[-114.5,32.0],[-117.0,32.5]]]}},{"type":"Feature","properties":{"name":"Indonesia","iso2":"ID","defaultScore":28},"geometry":{"type":"Polygon","coordinates":[[[95.0,5.5],[98.0,4.0],[100.0,2.0],[104.0,1.0],[108.0,0.0],[110.0,-2.0],[115.0,-4.0],[118.0,-5.5],[115.0,-8.5],[112.0,-8.0],[108.0,-7.5],[105.0,-7.0],[106.0,-8.0],[105.5,-6.5],[108.0,-7.0],[115.0,-8.0],[120.0,-10.0],[124.0,-10.0],[126.0,-9.0],[128.0,-8.0],[125.0,-7.0],[123.0,-8.0],[120.0,-10.0],[118.0,-8.5],[116.0,-9.0],[115.0,-8.5],[109.0,-8.0],[105.0,-7.0],[102.0,-5.5],[100.0,-3.0],[98.0,1.0],[95.5,3.5],[95.0,5.5]]]}},{"type":"Feature","properties":{"name":"Argentina","iso2":"AR","defaultScore":30},"geometry":{"type":"Polygon","coordinates":[[[-53.5,-33.5],[-53.0,-30.0],[-55.0,-28.0],[-57.5,-22.0],[-63.0,-22.0],[-65.0,-22.0],[-67.0,-22.5],[-68.5,-27.0],[-68.0,-30.0],[-69.0,-34.0],[-70.5,-38.0],[-71.0,-42.0],[-71.5,-45.0],[-72.5,-48.0],[-72.0,-52.0],[-68.5,-55.0],[-65.0,-55.5],[-63.5,-52.0],[-58.5,-51.5],[-57.5,-48.0],[-60.0,-42.0],[-58.0,-38.0],[-56.0,-34.0],[-53.5,-33.5]]]}},{"type":"Feature","properties":{"name":"Colombia","iso2":"CO","defaultScore":42},"geometry":{"type":"Polygon","coordinates":[[[-75.5,11.0],[-73.0,12.5],[-72.0,12.0],[-71.5,10.5],[-70.0,8.5],[-67.0,6.5],[-65.5,2.5],[-67.0,2.0],[-70.0,2.0],[-73.5,2.0],[-74.0,4.0],[-77.5,6.0],[-78.0,8.0],[-76.5,9.5],[-75.5,11.0]]]}},{"type":"Feature","properties":{"name":"Kazakhstan","iso2":"KZ","defaultScore":20},"geometry":{"type":"Polygon","coordinates":[[[51.0,51.5],[55.0,54.0],[61.0,55.5],[68.0,55.5],[73.0,54.0],[78.0,53.5],[80.0,51.0],[82.0,50.5],[81.0,48.0],[79.0,46.5],[72.0,43.5],[65.0,42.0],[58.0,40.5],[55.5,41.0],[52.5,41.0],[50.5,44.0],[51.0,45.0],[51.5,47.0],[51.0,51.5]]]}},{"type":"Feature","properties":{"name":"Japan","iso2":"JP","defaultScore":14},"geometry":{"type":"Polygon","coordinates":[[[130.0,31.0],[131.5,33.0],[133.0,34.0],[135.5,34.5],[137.0,35.0],[139.5,35.5],[141.0,39.5],[141.5,40.5],[141.0,42.5],[141.5,45.5],[143.0,44.0],[144.5,43.0],[143.0,42.0],[141.5,38.0],[140.0,36.0],[137.0,35.0],[134.0,33.5],[132.0,33.5],[130.0,33.0],[130.0,31.0]]]}},{"type":"Feature","properties":{"name":"Philippines","iso2":"PH","defaultScore":32},"geometry":{"type":"Polygon","coordinates":[[[118.0,18.0],[120.0,20.0],[122.0,18.5],[124.0,18.0],[126.5,14.0],[126.0,10.0],[125.0,9.0],[124.0,10.0],[122.0,11.0],[120.0,12.0],[119.0,14.0],[118.0,18.0]]]}},{"type":"Feature","properties":{"name":"Haiti","iso2":"HT","defaultScore":60},"geometry":{"type":"Polygon","coordinates":[[[-73.5,20.0],[-72.5,20.0],[-71.5,19.5],[-72.0,18.5],[-73.0,18.5],[-74.0,19.0],[-73.5,20.0]]]}},{"type":"Feature","properties":{"name":"Kenya","iso2":"KE","defaultScore":35},"geometry":{"type":"Polygon","coordinates":[[[33.9,-1.0],[35.0,4.0],[38.0,4.0],[41.0,3.5],[41.5,1.5],[40.0,-1.5],[38.0,-3.5],[35.5,-4.5],[34.0,-1.5],[33.9,-1.0]]]}},{"type":"Feature","properties":{"name":"Tanzania","iso2":"TZ","defaultScore":25},"geometry":{"type":"Polygon","coordinates":[[[29.5,-1.5],[33.9,-1.0],[34.0,-1.5],[35.5,-4.5],[38.0,-3.5],[40.0,-1.5],[40.5,-10.5],[39.0,-11.5],[36.0,-11.5],[33.0,-10.5],[30.0,-8.0],[29.5,-5.5],[29.5,-1.5]]]}}]}
